0 PSLV DEB
1 35536U 01049QL  13283.43751428  .00000604  00000-0  37008-3 0  2744
2 35536 098.6565 341.2473 0435990 163.0016 269.3103 13.70314602512429
0 PSLV DEB
1 35536U 01049QL  13286.43080044  .00000596  00000-0  36510-3 0  2754
2 35536 098.6560 343.9522 0436024 155.0464 275.5688 13.70317663512837
0 PSLV DEB
1 35536U 01049QL  13288.99698154  .00000824  00000-0  49626-3 0  2761
2 35536 098.6552 346.2711 0436021 148.2233 334.9042 13.70324017513183
0 PSLV DEB
1 35536U 01049QL  13292.41805853  .00000773  00000-0  46665-3 0  2773
2 35536 098.6545 349.3619 0436025 139.1275 291.6438 13.70329483513657
0 PSLV DEB
1 35536U 01049QL  13295.41126396  .00000810  00000-0  48819-3 0  2780
2 35536 098.6542 352.0659 0436004 131.1698 297.6847 13.70335686514065
